NOAA 15                 
1 25338U 98030A   20180.94159006  .00000070  00000-0  47754-4 0  9994
2 25338  98.7158 205.9339 0009568 224.5918 135.4493 14.25975405150615
DMSP 5D-3 F15 (USA 147) 
1 25991U 99067A   20180.88338448 -.00000104  00000-0 -29640-4 0  9996
2 25991  98.9701 152.3385 0010951  69.8359 343.8796 14.16481815 62046
METEOSAT-8 (MSG-1)      
1 27509U 02040B   20180.83326826  .00000131  00000-0  00000-0 0  9993
2 27509   6.7440  54.0626 0002276  28.5553 176.2154  1.00265219 65401
DMSP 5D-3 F16 (USA 172) 
1 28054U 03048A   20180.85271049 -.00000100  00000-0 -29138-4 0  9991
2 28054  98.9122 159.8728 0007183 182.8514 292.8909 14.13654312861396
NOAA 18                 
1 28654U 05018A   20180.92159445  .00000051  00000-0  52338-4 0  9990
2 28654  99.0428 237.4575 0014099 194.6127 165.4639 14.12521162778534
METEOSAT-9 (MSG-2)      
1 28912U 05049B   20180.82576597  .00000013  00000-0  00000-0 0  9994
2 28912   4.4485  70.1129 0002631   3.5500 144.5313  1.00265232 53183
FORMOSAT-3 FM6          
1 29047U 06011A   20180.88910654  .00000120  00000-0  63253-4 0  9998
2 29047  71.9794  86.6529 0049360  40.7720 319.7093 14.28735948742959
FORMOSAT-3 FM1          
1 29048U 06011B   20180.90802473  .00000038  00000-0  31276-4 0  9999
2 29048  71.9667 357.5099 0043872 358.2216   1.8757 14.28704669745449
FORMOSAT-3 FM5          
1 29049U 06011C   20180.69837299  .00000046  00000-0  34343-4 0  9997
2 29049  72.0190 169.6482 0034251  24.3035 335.9708 14.28786182741209
FORMOSAT-3 FM3          
1 29050U 06011D   20180.79815643  .00000103  00000-0  32122-4 0  9996
2 29050  72.0164 314.3805 0051323 303.2751  56.3490 14.58923643757985
FORMOSAT-3 FM4          
1 29051U 06011E   20180.90802847  .00000035  00000-0  29795-4 0  9998
2 29051  72.0064  71.2568 0069822 265.1325  94.1837 14.28817013743829
FORMOSAT-3 FM2          
1 29052U 06011F   20180.90699959  .00000073  00000-0  44919-4 0  9994
2 29052  72.0337 145.4971 0040719 343.6409  16.3410 14.28922045741333
GOES 13                 
1 29155U 06018A   20180.90911066  .00000033  00000-0  00000-0 0  9996
2 29155   0.1241 249.9755 0006120 296.4330 119.8651  1.00275137 21515
METOP-A                 
1 29499U 06044A   20180.85994083 -.00000015  00000-0  12219-4 0  9990
2 29499  98.5211 227.2587 0000972 119.2286  48.6120 14.21500756710326
DMSP 5D-3 F17 (USA 191) 
1 29522U 06050A   20180.87789175 -.00000103  00000-0 -31387-4 0  9996
2 29522  98.8011 197.1070 0010486 139.8049 220.3901 14.14018052704359
FENGYUN 3A              
1 32958U 08026A   20180.91949903  .00000003  00000-0  20992-4 0  9997
2 32958  98.4060 166.0631 0007770 309.5395  50.5094 14.18628049626341
FENGYUN 2E              
1 33463U 08066A   20180.73081799 -.00000204  00000-0  00000+0 0  9990
2 33463   4.3653  68.5076 0003256 313.4685 244.8218  1.00265982 42233
NOAA 19                 
1 33591U 09005A   20180.92628798  .00000058  00000-0  56930-4 0  9997
2 33591  99.1947 186.5725 0014732  46.9669 313.2733 14.12417757586755
GOES 14                 
1 35491U 09033A   20180.60342164 -.00000096  00000-0  00000+0 0  9999
2 35491   0.3483  98.1064 0008615 116.5342 175.4253  1.00270067 40309
METEOR-M 1              
1 35865U 09049A   20180.91499358  .00000008  00000-0  22505-4 0  9994
2 35865  98.4383 167.4692 0002956 135.4923 224.6493 14.22241584559404
DMSP 5D-3 F18 (USA 210) 
1 35951U 09057A   20180.93394068  .00000041  00000-0  44375-4 0  9999
2 35951  98.6444 170.4382 0010652 342.4436  17.6367 14.13278882325302
GOES 15                 
1 36411U 10008A   20180.65594459  .00000052  00000-0  00000+0 0  9998
2 36411   0.0939 266.3396 0002987 159.2221 319.7136  1.00263648 37810
COMS 1                  
1 36744U 10032A   20180.85062823 -.00000348  00000-0  00000-0 0  9991
2 36744   0.0380  84.7138 0000920  13.8157 253.2480  1.00271001 29236
FENGYUN 3B              
1 37214U 10059A   20180.86625658 -.00000025  00000-0  10880-4 0  9998
2 37214  99.0466 162.7785 0016168 233.6370 126.3319 14.15950780499293
SUOMI NPP               
1 37849U 11061A   20180.89330491 -.00000002  00000-0  19633-4 0  9997
2 37849  98.7370 118.6629 0000902 105.3428 326.4603 14.19538081449252
FENGYUN 2F              
1 38049U 12002A   20180.63204194 -.00000362  00000-0  00000-0 0  9991
2 38049   2.0894  83.4649 0001784  78.2634  95.1000  1.00277201 31035
METEOSAT-10 (MSG-3)     
1 38552U 12035B   20180.82690005  .00000057  00000-0  00000-0 0  9997
2 38552   1.0016  16.0159 0000888  26.7109 181.5390  1.00274700 29036
METOP-B                 
1 38771U 12049A   20180.91323543 -.00000023  00000-0  94411-5 0  9993
2 38771  98.6907 240.0449 0001110  43.2464 129.5031 14.21499046403644
FENGYUN 3C              
1 39260U 13052A   20180.86276362 -.00000035  00000-0  33696-5 0  9993
2 39260  98.5492 230.7758 0011198 177.1337 182.9904 14.15840566350236
METEOR-M 2              
1 40069U 14037A   20180.81200386 -.00000043  00000-0 -31191-6 0  9993
2 40069  98.5014 217.9182 0004610 244.4099 115.6593 14.20673261309825
HIMAWARI-8              
1 40267U 14060A   20180.89077219 -.00000279  00000-0  00000-0 0  9993
2 40267   0.0580 103.9483 0000952  24.5081 250.3011  1.00269839 20909
FENGYUN 2G              
1 40367U 14090A   20180.62951209 -.00000304  00000-0  00000-0 0  9997
2 40367   2.1104  94.4612 0002096 359.8236 148.9970  1.00264345 20183
METEOSAT-11 (MSG-4)     
1 40732U 15034A   20180.82506809 -.00000005  00000-0  00000-0 0  9994
2 40732   0.8119 273.8529 0003122 216.2187  84.4854  1.00268227 18187
ELEKTRO-L 2             
1 41105U 15074A   20180.91198944 -.00000100  00000-0  00000-0 0  9996
2 41105   1.2271  97.0478 0000929  29.1542 195.5336  1.00271650 16667
HIMAWARI-9              
1 41836U 16064A   20180.89077219 -.00000279  00000-0  00000-0 0  9992
2 41836   0.0190  12.2045 0000561  47.8051 318.8677  1.00270240 13331
GOES 16                 
1 41866U 16071A   20180.59470497 -.00000251  00000-0  00000+0 0  9994
2 41866   0.0444 198.6523 0000715 281.7869 295.5963  1.00271198 13256
FENGYUN 4A              
1 41882U 16077A   20180.91774703 -.00000334  00000-0  00000-0 0  9994
2 41882   0.0336 315.1028 0004399 192.1125 205.3231  1.00273811 13129
CYGFM05                 
1 41884U 16078A   20180.82129911  .00000204  00000-0  12524-4 0  9995
2 41884  34.9573 349.3441 0015229 149.9425 210.2162 15.14636915195830
CYGFM04                 
1 41885U 16078B   20180.45828981  .00000217  00000-0  13011-4 0  9994
2 41885  34.9505 344.7355 0013688 157.6040 202.5272 15.15147212195840
CYGFM02                 
1 41886U 16078C   20180.51701616  .00000235  00000-0  13971-4 0  9992
2 41886  34.9596 346.1094 0014392 153.8562 206.2879 15.15148238195840
CYGFM01                 
1 41887U 16078D   20180.79134243  .00000217  00000-0  13262-4 0  9992
2 41887  34.9541 350.6841 0015690 150.3673 209.7929 15.14449568195818
CYGFM08                 
1 41888U 16078E   20180.78001251  .00000223  00000-0  13420-4 0  9997
2 41888  34.9511 346.4901 0014943 157.4666 202.6704 15.14864919195843
CYGFM06                 
1 41889U 16078F   20180.75953447  .00000222  00000-0  13302-4 0  9996
2 41889  34.9592 343.2920 0013365 156.2250 203.9081 15.15142237195881
CYGFM07                 
1 41890U 16078G   20180.73794257  .00000203  00000-0  12286-4 0  9997
2 41890  34.9530 342.5138 0013169 159.3367 200.7879 15.15141046195880
CYGFM03                 
1 41891U 16078H   20180.79927813  .00000199  00000-0  12106-4 0  9995
2 41891  34.9562 342.3817 0012642 158.8102 201.3135 15.15136674195898
FENGYUN 3D              
1 43010U 17072A   20180.85516081 -.00000010  00000-0  16265-4 0  9996
2 43010  98.7523 120.0563 0002386  61.4927 298.6494 14.19744553135812
NOAA 20                 
1 43013U 17073A   20180.84446424 -.00000009  00000-0  16402-4 0  9993
2 43013  98.7182 118.6148 0000941  67.2632 292.8643 14.19556614135271
GOES 17                 
1 43226U 18022A   20180.79741990  .00000094  00000-0  00000-0 0  9990
2 43226   0.0524 226.7141 0000435 213.3791 347.1246  1.00272709  8554
FENGYUN 2H              
1 43491U 18050A   20180.69729459 -.00000132  00000-0  00000-0 0  9994
2 43491   0.6315 273.8872 0003387 222.2885 111.4417  1.00270215  7650
METOP-C                 
1 43689U 18087A   20180.91676853 -.00000017  00000-0  12424-4 0  9996
2 43689  98.6970 240.3436 0001339 344.3516  15.7620 14.21492795 85227
GEO-KOMPSAT-2A          
1 43823U 18100A   20180.85062823 -.00000347  00000-0  00000-0 0  9990
2 43823   0.0210 116.0521 0002249 321.8641 273.9614  1.00269237  5752
IOD-1 GEMS              
1 44385U 98067QK  20180.89726995  .00011507  00000-0  14318-3 0  9994
2 44385  51.6397 274.9280 0002655   8.0392 352.0643 15.60454273 56280
METEOR-M2 2             
1 44387U 19038A   20180.89281357 -.00000026  00000-0  77401-5 0  9994
2 44387  98.6202 140.7084 0001388 148.2739 211.8524 14.23679670 51164
